CANX-4                  
1 40055U 14034C   24271.12331076  .00003557  00000+0  49198-3 0  9998
2 40055  98.3876 110.1326 0012452 221.8423 138.1836 14.78696780551644
CANX-5                  
1 40056U 14034D   24270.78947395  .00003537  00000+0  48919-3 0  9995
2 40056  98.3880 109.7934 0012420 223.1207 136.9031 14.78704479542377
UKUBE-1                 
1 40074U 14037F   24271.06848308  .00017495  00000+0  15363-2 0  9998
2 40074  98.3449 207.4496 0006720  90.0418 270.1571 14.96641449554008
BRITE-PL2 (HEWELIUSZ)   
1 40119U 14049B   24270.66811611  .00005703  00000+0  59717-3 0  9994
2 40119  97.8846   9.9532 0015856  34.2022 326.0213 14.89903504547685
AEROCUBE 5C             
1 40965U 15058B   24270.79412663  .00009048  00000+0  78982-3 0  9993
2 40965  64.7702  49.3964 0191953 277.5469  80.3872 14.84190980272110
AEROCUBE 7              
1 40966U 15058C   24271.07351612  .00011177  00000+0  93179-3 0  9993
2 40966  64.7680  41.2858 0186186 277.1029  80.8942 14.86421969272264
FOX-1A (AO-85)          
1 40967U 15058D   24270.89561941  .00008984  00000+0  80096-3 0  9997
2 40967  64.7768  63.3301 0190517 273.2743  84.6587 14.83605164 20078
SINOD-D 1               
1 40968U 15058E   24270.51765395  .00011585  00000+0  98300-3 0  9994
2 40968  64.7778  56.2143 0184358 272.3591  85.6422 14.85985097 22868
SNAP-3 ALICE            
1 40970U 15058G   24270.55385282  .00035496  00000+0  21704-2 0  9994
2 40970  64.7713   6.7853 0150026 270.7033  87.6897 15.01098769 20974
LMRST-SAT               
1 40971U 15058H   24270.74000882  .00008813  00000+0  78404-3 0  9999
2 40971  64.7768  59.3559 0191875 274.7332  83.1889 14.83532060 20052
SNAP-3 EDDIE            
1 40972U 15058J   24270.33870124  .00041493  00000+0  25020-2 0  9995
2 40972  64.7687   0.6615 0150239 271.7577  86.6338 15.01501400 23046
PROPCUBE 3              
1 40973U 15058K   24270.63515016  .00010679  00000+0  90629-3 0  9995
2 40973  64.7717  46.5084 0188162 276.1331  81.8370 14.85565636 21091
BISONSAT                
1 40974U 15058L   24270.67681480  .00023161  00000+0  16285-2 0  9994
2 40974  64.7689  16.8028 0166320 273.9788  84.2329 14.94516421 20910
SNAP-3 JIMI             
1 40975U 15058M   24270.49034822  .00017992  00000+0  14074-2 0  9996
2 40975  64.7701  33.3481 0178925 275.1918  82.8797 14.89335360 20105
PROPCUBE 1 (FLORA)      
1 40976U 15058N   24270.94916151  .00007522  00000+0  69785-3 0  9999
2 40976  64.7751  74.7064 0190262 275.9052  82.0399 14.82327057 22875
SINOD-D 3               
1 40977U 15058P   24270.52199899  .00010415  00000+0  91828-3 0  9994
2 40977  64.7741  68.2774 0184010 275.2101  82.8033 14.84698676 21066
HORYU-4                 
1 41340U 16012D   24271.03872883  .00030213  00000+0  13260-2 0  9999
2 41340  31.0027  29.9151 0007173 296.3262  63.6642 15.20763893473647
RAVAN                   
1 41849U 16067B   24270.91675326  .00021148  00000+0  10531-2 0  9997
2 41849  98.0669  94.8506 0012528  44.6886 315.5353 15.17546004431390
CELTEE 1                
1 41850U 16067C   24270.72205158  .00012236  00000+0  78404-3 0  9992
2 41850  98.1085  85.6384 0001003 173.4362 186.6878 15.08696598430722
OPTICUBE 04             
1 41851U 16067D   24271.19250530  .00006363  00000+0  46328-3 0  9993
2 41851  98.0859  80.5482 0019064  76.1854 284.1491 15.04015224430569
AEROCUBE 8D             
1 41852U 16067E   24270.94933992  .00015220  00000+0  93071-3 0  9995
2 41852  98.1142  85.9218 0005590 122.8942 237.2824 15.10339611430743
AEROCUBE 8C             
1 41853U 16067F   24270.76633227  .00015801  00000+0  96611-3 0  9992
2 41853  98.0961  84.0585 0007779  60.0788 300.1212 15.10323885430704
PROMETHEUS 2-1          
1 41854U 16067G   24271.03801159  .00036027  00000+0  15332-2 0  9998
2 41854  98.1017  93.5792 0011078  70.0781 290.1646 15.22857309431205
PROMETHEUS 2-3          
1 41855U 16067H   24270.77459409  .00034834  00000+0  14875-2 0  9991
2 41855  98.0952  92.6851 0009486  80.9344 279.2964 15.22763842431168
CORVUS BC2              
1 42846U 17042X   24270.49969417  .00009231  00000+0  76310-3 0  9996
2 42846  97.3750  90.0642 0008365  81.4734 278.7437 14.99113222392610
CORVUS BC1              
1 42847U 17042Y   24270.45028147  .00009898  00000+0  81408-3 0  9992
2 42847  97.3751  90.4308 0009795  81.5065 278.7269 14.99277534392622
MIRATA                  
1 43015U 17073C   24270.93799205  .00045533  00000+0  18309-2 0  9992
2 43015  97.5771 154.8699 0148214 271.6457  86.7804 15.15164103371691
MAKERSAT 0              
1 43016U 17073D   24270.88403318  .00028573  00000+0  15012-2 0  9997
2 43016  97.5547 147.1940 0180404 298.0723  60.2363 15.02623240371160
GOMX-4B                 
1 43196U 18015E   24271.03369661  .00540968  13174-3  10332-2 0  9990
2 43196  97.5933  94.3892 0007833 271.4321  88.6060 16.00561187371562
SIRION PATHFINDER-2     
1 43759U 18099B   24270.91438109  .00011913  00000+0  85023-3 0  9990
2 43759  97.5169 324.2559 0009583 303.9356  56.0959 15.04641705317795
CORVUS BC4              
1 43767U 18099K   24270.86654630  .00010075  00000+0  73706-3 0  9995
2 43767  97.5027 321.0970 0009916  11.4397 348.7053 15.03749112317667
MOVE-II                 
1 43780U 18099Y   24271.13768019  .00054252  00000+0  22755-2 0  9990
2 43780  97.5093 333.5806 0004200 345.8294  14.2824 15.23287821318402
SPACEBEE-7              
1 43816U 18099BL  24270.61009943  .00030070  00000+0  15417-2 0  9995
2 43816  97.5371 333.3241 0007689 294.8580  65.1853 15.16480557317754
SPACEBEE-6              
1 43818U 18099BN  24270.94218742  .00104874  00000+0  29133-2 0  9996
2 43818  97.5285 341.2160 0006758 270.1972  89.8497 15.36446608318452
SHIELDS 1               
1 43850U 18104B   24270.31573902  .00035191  00000+0  81298-3 0  9998
2 43850  85.0231 214.2576 0013239  62.7945 297.4656 15.42267953321727
SONATE                  
1 44400U 19038Q   24270.88459889  .00046996  00000+0  11245-2 0  9995
2 44400  97.7165 270.0163 0017539 101.9983 258.3230 15.41158537289703
LUCKY-7                 
1 44406U 19038W   24270.95992003  .00119191  00000+0  14885-2 0  9990
2 44406  97.7011 276.1601 0013890  89.3442 270.9405 15.59340554290132
DUCHIFAT-3              
1 44854U 19089C   24271.02910159  .00033780  00000+0  14497-2 0  9992
2 44854  36.9537 148.4840 0008888 259.4341 100.5407 15.21822741263695
M2 PATHFINDER           
1 45727U 20037E   24271.07100603  .00007236  00000+0  60963-3 0  9994
2 45727  97.7824  87.0926 0011132 139.7102 220.4947 14.98453677231195
NETSAT-4                
1 46504U 20068U   24271.13728817  .00022073  00000+0  10692-2 0  9991
2 46504  97.8154 231.3054 0010349  28.8122 331.3681 15.18519542219629
NETSAT-3                
1 46505U 20068V   24270.70024426  .00021217  00000+0  10455-2 0  9995
2 46505  97.8133 230.2321 0010351  38.7014 321.4958 15.17931633219541
NETSAT-1                
1 46506U 20068W   24271.14230088  .00016682  00000+0  87874-3 0  9998
2 46506  97.8157 229.8842 0009625  46.7658 313.4375 15.15643911219557
NETSAT-2                
1 46507U 20068X   24271.15718355  .00022499  00000+0  10898-2 0  9992
2 46507  97.8139 230.9286 0009026  52.9792 307.2266 15.18528960219577
WILDTRACKCUBE-SIMBA     
1 47941U 21022K   24271.17624003  .00027228  00000+0  10493-2 0  9990
2 47941  97.4450 167.2529 0015777 136.7378 223.5103 15.26189061193996
GRBALPHA                
1 47959U 21022AD  24271.19226747  .00045527  00000+0  14161-2 0  9992
2 47959  97.4447 169.9460 0014797 125.3715 234.8912 15.33067959192995
BEESAT-8                
1 48085U 21022AP  24269.69489623  .00078660  00000+0  18000-2 0  9999
2 48085  97.4661 173.3761 0013577 114.7357 245.5305 15.42423250193318
LEDSAT                  
1 49069U 21073D   24271.19689693  .00034392  00000+0  11551-2 0  9993
2 49069  97.4276 341.9594 0015954 280.7874  79.1571 15.30649547172026
ROBUSTA-1F (MTCUBE 2)   
1 53109U 22080E   24269.63549959 -.00000003  00000+0  00000+0 0  9995
2 53109  70.1256 157.2023 0008080  67.4234 292.7280  6.42583957 51615
SITRO-AIS 5 (KATYS)     
1 57176U 23091L   24271.16441331  .00016123  00000+0  95753-3 0  9994
2 57176  97.6017 322.5868 0018132 131.1007 229.1792 15.11248649 68883
SITRO-AIS 6 (CHIRKIN)   
1 57192U 23091AC  24271.14603058  .00015372  00000+0  91227-3 0  9993
2 57192  97.6019 322.5987 0018148 130.5488 229.7325 15.11286074 68880
SITRO-AIS 8 (ANOKHIN)   
1 57193U 23091AD  24271.15287962  .00016784  00000+0  98144-3 0  9990
2 57193  97.6016 322.7330 0017744 131.5049 228.7707 15.11808810 68899
SITRO-AIS 7 (FARTUSHNIY)
1 57194U 23091AE  24271.15471544  .00015385  00000+0  91483-3 0  9997
2 57194  97.6016 322.5790 0017918 131.2625 229.0151 15.11219147 68883
SITRO-AIS 10 (BURDAEV)  
1 57199U 23091AK  24271.19241198  .00017579  00000+0  97126-3 0  9993
2 57199  97.6026 323.9939 0013162 119.6559 240.5985 15.13895564 68970
SITRO-AIS 9 (SHCHUKIN)  
1 57201U 23091AM  24271.19232520  .00017304  00000+0  95707-3 0  9995
2 57201  97.6021 323.9645 0013130 119.6555 240.5985 15.13862309 68975
SITRO-AIS 12 (SMIRENNIY)
1 57204U 23091AQ  24271.14176173  .00020476  00000+0  11250-2 0  9998
2 57204  97.6033 324.0865 0013133 114.3746 245.8858 15.14062364 68975
SITRO-AIS 11 (SHEFFER)  
1 57208U 23091AU  24271.18677505  .00018277  00000+0  10016-2 0  9996
2 57208  97.6026 324.1670 0012839 114.7215 245.5354 15.14183414 68982
ROBUSTA-1E (ENSO)       
1 58470U 23185J   24271.19145376  .00033934  00000+0  12070-2 0  9998
2 58470  97.4154 337.1309 0010055 274.9942  85.0150 15.28858453 45692
SITRO-AIS 29            
1 59052U 24039B   24271.17554942  .00054186  00000+0  15426-2 0  9995
2 59052  97.4002 232.8906 0013196 195.8492 164.2341 15.35844912 32203
